PROBA-1                 
1 26958U 01049B   26170.99086786  .00000569  00000+0  40771-4 0  9995
2 26958  97.9595 179.6215 0056459 112.7181 248.0028 15.07498547344046
CUTE-1 (CO-55)          
1 27844U 03031E   26170.56610412  .00000202  00000+0  10624-3 0  9992
2 27844  98.6736 179.0951 0009689 171.1603 188.9749 14.24336935192018
CUBESAT XI-IV (CO-57)   
1 27848U 03031J   26170.97745452  .00000169  00000+0  93103-4 0  9990
2 27848  98.6765 179.2116 0009219 188.6492 171.4529 14.23622052191779
APRIZESAT 4             
1 35684U 09041D   26170.75201161  .00000445  00000+0  59830-4 0  9990
2 35684  98.1412 246.1237 0042243 314.5541  45.2225 14.83882094911745
APRIZESAT 3             
1 35686U 09041F   26170.37271590  .00001570  00000+0  13950-3 0  9995
2 35686  98.2067 323.7010 0062798  60.6968 300.0508 14.96248332916706
PROBA-2                 
1 36037U 09059B   26170.51006631  .00000112  00000+0  36558-4 0  9994
2 36037  98.2451 353.8305 0011942 274.0860  85.8972 14.54863196881868
APRIZESAT 5             
1 37792U 11044E   26170.77714931  .00000837  00000+0  11290-3 0  9996
2 37792  98.2452 103.8909 0052138 355.9993   4.0794 14.81080842799175
APRIZESAT 6             
1 37793U 11044F   26170.71549074  .00000575  00000+0  88315-4 0  9997
2 37793  98.2361  81.2667 0044461  78.1980 312.2795 14.76919078797523
PROBA-V                 
1 39159U 13021A   26170.50883740  .00000042  00000+0  36405-4 0  9992
2 39159  98.3584 149.0009 0005221 117.9671 242.2038 14.23597276681441
APRIZESAT 7             
1 39416U 13066A   26170.83736970  .00000738  00000+0  78478-4 0  9993
2 39416  97.7709 124.0192 0035208 200.2744 159.7079 14.91568577681624
APRIZESAT 8             
1 39425U 13066K   26170.76463374  .00000685  00000+0  80253-4 0  9995
2 39425  97.8220 118.1965 0044354 277.7881  81.8301 14.87656607680054
BUGSAT-1 (TITA)         
1 40014U 14033E   26170.94120785  .00004054  00000+0  21536-3 0  9994
2 40014  98.0423 263.6509 0028257 169.1575 191.0271 15.15607215656254
SAUDISAT 4              
1 40016U 14033G   26170.35063119  .00000502  00000+0  72734-4 0  9999
2 40016  97.7586 316.4104 0046087  67.1647 293.4423 14.79547180646391
APRIZESAT 9             
1 40018U 14033J   26170.65107954  .00000535  00000+0  85979-4 0  9991
2 40018  97.9065 303.7895 0065886 191.2117 168.7628 14.74217297643927
APRIZESAT 10            
1 40019U 14033K   26170.57563661  .00000334  00000+0  60551-4 0  9990
2 40019  97.9654 297.4818 0077409 266.0770  93.1584 14.70884168642605
TECHDEMOSAT-1 (TDS-1)   
1 40076U 14037H   26170.47276328  .00006839  00000+0  38815-3 0  9990
2 40076  98.3816 162.9119 0004637 255.6132 104.4583 15.13320540648576
TECHNOSAT               
1 42829U 17042E   26170.90880568  .00002842  00000+0  20384-3 0  9994
2 42829  97.4297 328.4628 0019157  85.7060 274.6355 15.04977332487111
FLYING LAPTOP           
1 42831U 17042G   26170.91847649  .00002839  00000+0  22509-3 0  9998
2 42831  97.4702 326.3461 0019679 112.8380 247.4926 15.01160904486862
HAWK-A                  
1 43765U 18099H   26170.71081534  .00004986  00000+0  20173-3 0  9999
2 43765  97.3908 222.9140 0033056 276.5231  83.2244 15.24666904413482
HAWK-B                  
1 43794U 18099AN  26170.66965219  .00004549  00000+0  19500-3 0  9993
2 43794  97.3956 222.2832 0030360 295.7385  64.0719 15.22847511413416
HAWK-C                  
1 43799U 18099AT  26170.68164612  .00006005  00000+0  21698-3 0  9998
2 43799  97.3885 223.8098 0038717 276.5465  83.1367 15.28130964414294
SALSAT                  
1 46495U 20068K   26170.95810387  .00006379  00000+0  22355-3 0  9995
2 46495  97.8854 174.1914 0007892 296.5001  63.5428 15.29832652315782
HAWK-2C                 
1 47502U 21006CT  26170.69518063  .00005224  00000+0  15761-3 0  9996
2 47502  97.2274 214.9552 0006974 177.0555 183.0731 15.34688462299881
HAWK-2A                 
1 47505U 21006CW  26170.69764865  .00005202  00000+0  15692-3 0  9991
2 47505  97.2315 215.6368 0006411 179.8957 180.2289 15.34703167299882
HAWK-2B                 
1 47508U 21006CZ  26170.69303845  .00005801  00000+0  17417-3 0  9993
2 47508  97.2186 213.9601 0007006 178.2867 181.8402 15.34794250299883
HAWK-3B                 
1 48931U 21059BE  26170.49179253  .00044803  00000+0  37713-3 0  9990
2 48931  97.6656   7.4175 0003201 318.2417  41.8600 15.69734249278211
HAWK-3C                 
1 48948U 21059BX  26170.49147182  .00044376  00000+0  37360-3 0  9997
2 48948  97.6775  13.1066 0003519 320.4197  39.6807 15.69730324278210
HAWK-3A                 
1 48957U 21059CG  26170.49131177  .00039274  00000+0  33085-3 0  9995
2 48957  97.6723  10.3100 0003418 322.4094  37.6928 15.69740181278211
HAWK-5C                 
1 52754U 22057Y   26170.43057931  .00016618  00000+0  28302-3 0  9996
2 52754  97.6609 330.2418 0004855  76.7039 283.4754 15.51460427226690
HAWK-5B                 
1 52756U 22057AA  26170.43042608  .00016423  00000+0  27968-3 0  9994
2 52756  97.6615 328.5910 0005536  69.4340 290.7504 15.51461534226691
